GLOBALSTAR M023         
1 25621U 99004A   24191.80021171 -.00000045  00000+0  32533-3 0  9993
2 25621  52.0122  15.9898 0011012  91.0699  30.1814 12.62461859172572
GLOBALSTAR M040         
1 25622U 99004B   24191.54330589 -.00000098  00000+0  31577-4 0  9997
2 25622  51.9932  20.4182 0001279  48.8874 343.2347 12.61976685171997
GLOBALSTAR M036         
1 25623U 99004C   24191.87380512 -.00000009  00000+0  10693-2 0  9991
2 25623  51.9978  62.5637 0011698 111.0009 331.9477 11.86569980138329
GLOBALSTAR M038         
1 25624U 99004D   24191.62912134 -.00000088  00000+0  58111-4 0  9992
2 25624  51.9994 338.0807 0002503  75.0221   5.4881 12.32502460160136
GLOBALSTAR M022         
1 25649U 99012A   24191.63422777 -.00000068  00000+0  22334-3 0  9993
2 25649  52.0023 142.1043 0002119 215.0392 316.4084 12.02484896135166
GLOBALSTAR M041         
1 25650U 99012B   24191.50415553 -.00000087  00000+0 -19097-4 0  9990
2 25650  52.0039  13.4609 0002776  26.0003 334.0972 11.96655399137255
GLOBALSTAR M046         
1 25651U 99012C   24191.54795271 -.00000152  00000+0 -69617-3 0  9998
2 25651  52.0053 104.9811 0002116 304.8582 226.8022 12.09393727142204
GLOBALSTAR M037         
1 25652U 99012D   24191.61613645 -.00000073  00000+0  17221-3 0  9996
2 25652  51.9988 147.2948 0001672 139.4812  31.9416 12.62410711168005
